{
  "norad_id": 33055,
  "name": "SKYNET 5C",
  "history": [
    {
      "epoch": "2026-03-28T20:04:38.593056Z",
      "apogee_km": 35808.85185123983,
      "perigee_km": 35764.37900026629,
      "latitude_deg": 1.8620040080994054,
      "longitude_deg": -17.785643139663588,
      "height_km": 35786.194318625356,
      "semi_major_axis_km": 42164.75242575307,
      "eccentricity": 0.00052737,
      "inclination_deg": 3.5843,
      "raan_deg": 77.9733,
      "arg_perigee_deg": 301.0498,
      "mean_anomaly_deg": 90.574,
      "mean_motion_rev_day": 1.00271712
    },
    {
      "epoch": "2026-03-29T04:23:29.504832Z",
      "apogee_km": 35808.87758278549,
      "perigee_km": 35764.34317660306,
      "latitude_deg": 1.4370607243259228,
      "longitude_deg": -17.78827924437731,
      "height_km": 35804.19270381974,
      "semi_major_axis_km": 42164.74737969428,
      "eccentricity": 0.0005281,
      "inclination_deg": 3.5853,
      "raan_deg": 77.9692,
      "arg_perigee_deg": 301.6222,
      "mean_anomaly_deg": 215.0597,
      "mean_motion_rev_day": 1.0027173
    },
    {
      "epoch": "2026-03-30T02:38:22.867296Z",
      "apogee_km": 35809.07801935729,
      "perigee_km": 35764.13040522499,
      "latitude_deg": 2.7023219403807035,
      "longitude_deg": -17.749644491701446,
      "height_km": 35808.11149665909,
      "semi_major_axis_km": 42164.74121229114,
      "eccentricity": 0.000533,
      "inclination_deg": 3.5877,
      "raan_deg": 77.9585,
      "arg_perigee_deg": 302.9765,
      "mean_anomaly_deg": 188.3522,
      "mean_motion_rev_day": 1.00271752
    },
    {
      "epoch": "2026-03-30T09:29:05.973792Z",
      "apogee_km": 35809.120321587056,
      "perigee_km": 35764.09090635989,
      "latitude_deg": -2.891950580447293,
      "longitude_deg": -17.907002175630748,
      "height_km": 35778.4188417475,
      "semi_major_axis_km": 42164.742613973474,
      "eccentricity": 0.00053397,
      "inclination_deg": 3.5884,
      "raan_deg": 77.9553,
      "arg_perigee_deg": 303.4304,
      "mean_anomaly_deg": 290.8623,
      "mean_motion_rev_day": 1.00271747
    },
    {
      "epoch": "2026-03-30T19:45:13.091616Z",
      "apogee_km": 35809.26636559104,
      "perigee_km": 35763.93252755314,
      "latitude_deg": 1.7055780331010373,
      "longitude_deg": -17.784757951389825,
      "height_km": 35783.87604269373,
      "semi_major_axis_km": 42164.73644657209,
      "eccentricity": 0.00053758,
      "inclination_deg": 3.5895,
      "raan_deg": 77.9505,
      "arg_perigee_deg": 304.0403,
      "mean_anomaly_deg": 84.7082,
      "mean_motion_rev_day": 1.00271769
    },
    {
      "epoch": "2026-03-31T19:42:40.656960Z",
      "apogee_km": 35809.481706357066,
      "perigee_km": 35763.69924526384,
      "latitude_deg": 1.7259897499965156,
      "longitude_deg": -17.786819052485008,
      "height_km": 35783.382114319444,
      "semi_major_axis_km": 42164.727475810454,
      "eccentricity": 0.0005429,
      "inclination_deg": 3.5921,
      "raan_deg": 77.9389,
      "arg_perigee_deg": 305.5506,
      "mean_anomaly_deg": 83.5586,
      "mean_motion_rev_day": 1.00271801
    },
    {
      "epoch": "2026-04-01T16:14:55.881024Z",
      "apogee_km": 35809.63997802603,
      "perigee_km": 35763.52863880316,
      "latitude_deg": -1.3558723551659577,
      "longitude_deg": -17.731784898282378,
      "height_km": 35766.501463641005,
      "semi_major_axis_km": 42164.7213084146,
      "eccentricity": 0.0005468,
      "inclination_deg": 3.5942,
      "raan_deg": 77.9286,
      "arg_perigee_deg": 306.7743,
      "mean_anomaly_deg": 31.2524,
      "mean_motion_rev_day": 1.00271823
    },
    {
      "epoch": "2026-04-02T09:21:35.875584Z",
      "apogee_km": 35809.76605236643,
      "perigee_km": 35763.40088244606,
      "latitude_deg": -2.935010898620658,
      "longitude_deg": -17.915764003462122,
      "height_km": 35779.41237073138,
      "semi_major_axis_km": 42164.720467406245,
      "eccentricity": 0.00054981,
      "inclination_deg": 3.5959,
      "raan_deg": 77.9203,
      "arg_perigee_deg": 307.7772,
      "mean_anomaly_deg": 287.6279,
      "mean_motion_rev_day": 1.00271826
    },
    {
      "epoch": "2026-04-03T16:09:55.539936Z",
      "apogee_km": 35801.43874019807,
      "perigee_km": 35770.00136837839,
      "latitude_deg": -1.3082322861556994,
      "longitude_deg": -17.707073176229798,
      "height_km": 35773.51740371893,
      "semi_major_axis_km": 42163.85705428823,
      "eccentricity": 0.0003728,
      "inclination_deg": 3.5987,
      "raan_deg": 77.9078,
      "arg_perigee_deg": 297.5644,
      "mean_anomaly_deg": 41.2345,
      "mean_motion_rev_day": 1.00274906
    },
    {
      "epoch": "2026-04-04T05:11:26.889216Z",
      "apogee_km": 35802.684606589595,
      "perigee_km": 35770.019776812784,
      "latitude_deg": 0.34638249529574366,
      "longitude_deg": -17.801314606372564,
      "height_km": 35793.90007718802,
      "semi_major_axis_km": 42164.48919170119,
      "eccentricity": 0.00038735,
      "inclination_deg": 3.6,
      "raan_deg": 77.9005,
      "arg_perigee_deg": 294.2211,
      "mean_anomaly_deg": 240.4993,
      "mean_motion_rev_day": 1.00272651
    },
    {
      "epoch": "2026-04-05T05:48:55.572768Z",
      "apogee_km": 35802.70837294775,
      "perigee_km": 35770.224762359234,
      "latitude_deg": -0.30488927122549137,
      "longitude_deg": -17.824013181725192,
      "height_km": 35791.91087108912,
      "semi_major_axis_km": 42164.603567653496,
      "eccentricity": 0.0003852,
      "inclination_deg": 3.6024,
      "raan_deg": 77.8877,
      "arg_perigee_deg": 296.2874,
      "mean_anomaly_deg": 248.8281,
      "mean_motion_rev_day": 1.00272243
    },
    {
      "epoch": "2026-04-05T19:30:19.778688Z",
      "apogee_km": 35802.691767889344,
      "perigee_km": 35770.25874814048,
      "latitude_deg": 1.842095871893108,
      "longitude_deg": -17.780733324414502,
      "height_km": 35786.78443294003,
      "semi_major_axis_km": 42164.61225801491,
      "eccentricity": 0.0003846,
      "inclination_deg": 3.6038,
      "raan_deg": 77.8809,
      "arg_perigee_deg": 297.3895,
      "mean_anomaly_deg": 93.6465,
      "mean_motion_rev_day": 1.00272212
    },
    {
      "epoch": "2026-04-06T05:06:38.706336Z",
      "apogee_km": 35802.70889648718,
      "perigee_km": 35770.25731826774,
      "latitude_deg": 0.293344516177488,
      "longitude_deg": -17.800780752562638,
      "height_km": 35794.71935112426,
      "semi_major_axis_km": 42164.62010737746,
      "eccentricity": 0.00038482,
      "inclination_deg": 3.6047,
      "raan_deg": 77.8756,
      "arg_perigee_deg": 298.0544,
      "mean_anomaly_deg": 237.4611,
      "mean_motion_rev_day": 1.00272184
    },
    {
      "epoch": "2026-04-07T19:25:29.875584Z",
      "apogee_km": 35802.67902021038,
      "perigee_km": 35770.35559621771,
      "latitude_deg": 1.8896444248901085,
      "longitude_deg": -17.78037041529884,
      "height_km": 35786.185924482976,
      "semi_major_axis_km": 42164.65430821405,
      "eccentricity": 0.0003833,
      "inclination_deg": 3.6085,
      "raan_deg": 77.8554,
      "arg_perigee_deg": 300.4268,
      "mean_anomaly_deg": 91.3974,
      "mean_motion_rev_day": 1.00272062
    },
    {
      "epoch": "2026-04-08T10:17:38.476320Z",
      "apogee_km": 35802.698225617234,
      "perigee_km": 35770.37900175934,
      "latitude_deg": -3.479861761770027,
      "longitude_deg": -17.83146366476633,
      "height_km": 35775.26871517316,
      "semi_major_axis_km": 42164.67561368829,
      "eccentricity": 0.00038325,
      "inclination_deg": 3.6099,
      "raan_deg": 77.8479,
      "arg_perigee_deg": 301.3458,
      "mean_anomaly_deg": 314.1333,
      "mean_motion_rev_day": 1.00271986
    },
    {
      "epoch": "2026-04-09T17:37:55.666848Z",
      "apogee_km": 35802.6245998982,
      "perigee_km": 35770.554109032986,
      "latitude_deg": 0.42229558344565105,
      "longitude_deg": -17.7480024224799,
      "height_km": 35778.976341502195,
      "semi_major_axis_km": 42164.726354465594,
      "eccentricity": 0.0003803,
      "inclination_deg": 3.6131,
      "raan_deg": 77.8316,
      "arg_perigee_deg": 302.8726,
      "mean_anomaly_deg": 63.9818,
      "mean_motion_rev_day": 1.00271805
    },
    {
      "epoch": "2026-04-10T09:01:52.573152Z",
      "apogee_km": 35802.60681402902,
      "perigee_km": 35770.63749363859,
      "latitude_deg": -3.0648167514370344,
      "longitude_deg": -17.86279105963863,
      "height_km": 35779.835066703105,
      "semi_major_axis_km": 42164.75915383381,
      "eccentricity": 0.0003791,
      "inclination_deg": 3.6146,
      "raan_deg": 77.8239,
      "arg_perigee_deg": 303.6503,
      "mean_anomaly_deg": 294.8316,
      "mean_motion_rev_day": 1.00271688
    },
    {
      "epoch": "2026-04-11T17:32:44.975904Z",
      "apogee_km": 35802.51415492047,
      "perigee_km": 35770.88209560949,
      "latitude_deg": 0.46393226709873664,
      "longitude_deg": -17.75353695441398,
      "height_km": 35778.88971210974,
      "semi_major_axis_km": 42164.83512526498,
      "eccentricity": 0.0003751,
      "inclination_deg": 3.618,
      "raan_deg": 77.8071,
      "arg_perigee_deg": 304.7476,
      "mean_anomaly_deg": 62.8036,
      "mean_motion_rev_day": 1.00271417
    },
    {
      "epoch": "2026-04-13T05:25:38.748288Z",
      "apogee_km": 35802.41919295331,
      "perigee_km": 35771.17497679642,
      "latitude_deg": -0.4401666352259376,
      "longitude_deg": -17.831551168869602,
      "height_km": 35793.83464605195,
      "semi_major_axis_km": 42164.93408487487,
      "eccentricity": 0.0003705,
      "inclination_deg": 3.6217,
      "raan_deg": 77.7882,
      "arg_perigee_deg": 305.7788,
      "mean_anomaly_deg": 241.4864,
      "mean_motion_rev_day": 1.00271064
    }
  ]
}